C/2019 M4 (TESS),e,65.6996,52.6383,260.3288,76259,0.0000000,0.99987948,0.0000,09/08.9615/2019,2000,g  5.0,4.0
# From MPEC 2023-C45
C/2019 N1 (ATLAS),e,82.5634,13.4963,193.3398,946.4766,0.0000338,0.99820087,0.0000,11/30.4438/2020,2000,g  7.5,4.0
# From MPEC 2023-CD8
A/2019 N2,e,89.3187,276.2271,347.0382,1068,0.0000283,0.99818467,0.0000,08/22.3558/2019,2000,g 12.5,2.0
# From MPEC 2022-A21
C/2019 NJ3 (Lemmon),h,10/21.9627/2020,99.3210,142.4932,246.8635,1.001215,4.362954,2000,9.0,4.0
# From MPC185656
C/2019 O2 (PANSTARRS),e,93.2922,48.2647,129.5672,58.81664,0.0021850,0.83541385,2.0715,11/09.0/2025,2000,g  5.0,4.0
# From MPC182878
C/2019 O3 (Palomar),h,03/07.9085/2021,89.7922,300.4815,60.0870,1.002185,8.820406,2000,3.5,4.0
# From MPEC 2021-P47
A/2019 O4,e,114.9834,354.9239,61.8074,33.20128,0.0051520,0.89032887,10.8084,11/09.0/2025,2000,g 15.5,2.0
# From MPEC 2024-EF7
C/2019 Q1 (Lemmon),h,07/22.4127/2020,155.7156,42.4717,56.2480,1.002504,5.001022,2000,8.5,4.0
# From MPC117072
A/2019 Q2,e,158.9565,188.1517,176.5180,58.84561,0.0021834,0.97860078,0.0000,07/24.0383/2019,2000,g 18.0,2.0
# From MPC117072
P/2019 S2 (PANSTARRS),e,10.4636,93.1793,216.8832,4.747972,0.0952669,0.20467186,234.2558,11/09.0/2025,2000,g 13.5,4.0
# From MPEC 2022-CN4
P/2019 S3 (PANSTARRS),e,8.6944,150.1399,213.1018,3.413777,0.1562613,0.47065385,353.7212,11/09.0/2025,2000,g 18.3,4.0
# From MPEC 2021-S45
C/2019 S4 (Lemmon),e,92.0842,63.1530,71.3682,250.9638,0.0002479,0.98630005,0.0000,04/09.6808/2020,2000,g 11.0,4.0
# From MPEC 2023-N01
A/2019 T1,e,120.8065,6.9231,90.9608,38.70796,0.0040926,0.88959390,7.1996,11/09.0/2025,2000,g 13.0,2.0
# From MPEC 2023-R20
C/2019 T2 (Lemmon),e,111.3520,155.6526,239.3741,2964,0.0000061,0.99910846,0.0000,04/22.3723/2021,2000,g  9.0,4.0
# From MPEC 2023-UR6
C/2019 T3 (ATLAS),e,121.8833,139.5480,112.4930,5374,0.0000025,0.99889234,0.0000,03/04.9125/2021,2000,g  6.8,4.0
# From MPC188408
C/2019 T4 (ATLAS),e,53.6244,199.8876,351.1097,886.7455,0.0000373,0.99522206,0.0000,06/08.7075/2022,2000,g  5.0,4.0
# From MPEC 2021-P47
P/2019 T5 (ATLAS),e,33.4859,247.6143,189.6362,8.009417,0.0434813,0.80971296,99.5452,11/09.0/2025,2000,g 15.0,4.0
# From MPEC 2021-P47
P/2019 T6 (PANSTARRS),e,18.6968,71.2517,329.0635,5.443658,0.0776011,0.62224448,170.1258,11/09.0/2025,2000,g 15.5,4.0
# From MPC118096
P/2019 U4 (PANSTARRS),e,11.6955,199.9964,181.0945,3.518258,0.1493525,0.47566722,334.5281,11/09.0/2025,2000,g 19.0,4.0
# From MPEC 2025-V36
C/2019 U5 (PANSTARRS),h,03/29.3473/2023,113.5138,2.6028,181.4452,1.000013,3.624586,2000,4.5,4.0
# From MPEC 2022-H04
C/2019 U6 (Lemmon),e,61.0012,235.7231,329.4186,301.0151,0.0001887,0.99699315,0.0000,06/18.3848/2020,2000,g 10.0,4.0
# From MPEC 2022-N37
C/2019 V1 (Borisov),e,61.9451,83.1484,51.2031,3047,0.0000059,0.99898478,0.0000,07/17.8387/2020,2000,g 11.0,4.0
# From MPEC 2022-L66
P/2019 V2 (Groeller),e,11.8073,189.1242,335.6462,7.494923,0.0480345,0.33204292,88.7856,11/09.0/2025,2000,g 10.0,4.0
# From MPEC 2023-A50
P/2019 W1 (PANSTARRS),e,23.4645,35.3542,18.9149,4.548408,0.1016050,0.26712464,241.0633,11/09.0/2025,2000,g 12.9,4.0
# From MPEC 2021-P47
P/2019 X1 (Pruyne),e,10.2438,43.6740,37.0294,6.180535,0.0641453,0.30371049,147.4720,11/09.0/2025,2000,g 10.4,4.0
# From MPEC 2020-C98
P/2019 X2 (Pan-STARRS),e,15.8947,250.8260,213.5393,3.633473,0.1423053,0.50050912,307.1620,11/09.0/2025,2000,g 18.0,4.0
# From MPC119999
C/2019 Y1 (ATLAS),e,73.2391,31.4499,57.9237,88.37558,0.0011863,0.99065067,0.0000,03/17.3564/2020,2000,g 13.7,4.0
# From MPEC 2024-A43
C/2019 Y4 (ATLAS),e,44.9009,120.8057,177.3984,323.8602,0.0001691,0.99920543,0.0000,05/29.3306/2020,2000,g 11.8,6.0
# From MPEC 2020-L06
C/2019 Y4-A (ATLAS),h,05/29.3917/2020,45.3343,121.1743,177.2300,1.001348,0.255479,2000,11.9,6.0
# From MPEC 2025-CE3
C/2019 Y4-B (ATLAS),e,44.9820,120.8691,177.3573,1251,0.0000223,0.99979460,0.0000,05/29.3412/2020,2000,g 12.1,6.0
# From MPEC 2020-L06
C/2019 Y4-C (ATLAS),h,05/29.3472/2020,45.1184,120.9017,177.2626,1.002076,0.256547,2000,12.3,6.0
# From MPEC 2020-L06
C/2019 Y4-D (ATLAS),e,45.1725,121.2617,177.4070,67.03266,0.0017959,0.99618263,0.0000,05/29.4148/2020,2000,g 13.8,6.0
# From MPEC 2023-A50
C/2019 Y5 (PANSTARRS),e,82.7820,51.7778,303.6793,680.5751,0.0000555,0.99274701,0.0000,08/16.2957/2019,2000,g 11.0,4.0
# From MPEC 2023-A50
A/2020 A1,e,149.0315,119.0479,302.4071,25.45771,0.0076732,0.93425521,16.6602,11/09.0/2025,2000,g 18.0,2.0
# From MPEC 2022-YN2
C/2020 A2 (Iwamoto),e,120.4963,286.1801,68.0183,923.1265,0.0000351,0.99894251,0.0000,01/06.7059/2020,2000,g 13.5,4.0
# From MPEC 2023-A50
C/2020 A3 (ATLAS),e,146.6159,120.7964,268.2223,3837,0.0000041,0.99850072,0.0000,06/26.3135/2019,2000,g  8.0,4.0
# From MPEC 2022-P91
P/2020 A4 (PANSTARRS-Lemmon),e,25.0055,312.2676,144.9365,8.204910,0.0419366,0.65443544,91.2686,11/09.0/2025,2000,g 15.0,4.0
# From MPEC 2020-N08
A/2020 B1,e,18.5443,309.7814,154.9165,52.21597,0.0026122,0.96667539,5.5983,11/09.0/2025,2000,g 21.0,2.0
# From MPEC 2020-HN5
C/2020 B2 (Lemmon),e,55.7573,354.1488,143.6499,68.00852,0.0017574,0.95947359,3.7125,11/09.0/2025,2000,g 10.0,4.0
# From MPEC 2022-N37
C/2020 B3 (Rankin),e,20.7068,185.7191,324.9590,1098,0.0000271,0.99696983,0.0000,10/21.1081/2019,2000,g 13.0,4.0
# From MPEC 2023-KD6
P/2020 B4 (Sheppard),e,11.6021,185.9386,342.0965,7.975103,0.0437622,0.19308208,63.4523,11/09.0/2025,2000,g 10.5,4.0
# From MPC186629
C/2020 F2 (ATLAS),h,07/12.1651/2022,163.5898,250.2977,48.2264,1.001997,8.813591,2000,4.5,4.0
# From MPEC 2021-O56
C/2020 F3 (NEOWISE),e,129.0800,61.0589,37.3228,406.9722,0.0001200,0.99928036,0.0000,07/05.1762/2020,2000,g  7.5,5.2
# From MPEC 2024-UQ8
C/2020 F5 (MASTER),e,52.2393,350.5562,310.5906,162.8973,0.0004741,0.97344784,0.0000,03/15.9750/2021,2000,g  6.5,3.2
# From MPEC 2020-L06
C/2020 F6 (PANSTARRS),e,174.5847,207.8220,344.3018,334.0247,0.0001614,0.98952753,0.0000,04/09.9114/2020,2000,g 14.5,2.8
# From MPEC 2024-A43
C/2020 F7 (Lemmon),e,93.9901,321.8155,227.9978,582.7328,0.0000701,0.99084348,0.0000,11/14.0288/2021,2000,g  7.0,4.0
# From MPEC 2023-J29
C/2020 F8 (SWAN),h,05/25.5117/2020,110.5661,259.8149,68.1332,1.000051,0.433645,2000,10.0,4.0
# From MPEC 2020-L06
P/2020 G1 (Pimentel),e,18.5046,240.0899,207.6616,3.606043,0.1439321,0.86082007,296.4826,11/09.0/2025,2000,g 17.0,4.0
# From MPEC 2022-YB4
C/2020 H2 (Pruyne),e,124.7737,277.6714,26.5769,175.0522,0.0004256,0.99526750,0.0000,04/26.5487/2020,2000,g 14.0,3.2
# From MPEC 2020-HM1
C/2020 H3 (Wierzchos),p,06/05.7162/2020,62.5292,30.4456,2.300288,270.6227,2000,13.0,4.0
# From MPEC 2020-L06
C/2020 H4 (Leonard),e,84.4952,307.4266,117.5998,47.86819,0.0029760,0.98059704,0.0000,08/29.0649/2020,2000,g 15.0,3.2
# From MPC184409
C/2020 H5 (Robinson),e,70.2195,210.6083,326.2634,6563,0.0000019,0.99857781,0.0000,12/10.0101/2020,2000,g  5.0,4.0
# From MPEC 2024-JU4
C/2020 H6 (ATLAS),e,79.9953,213.6804,20.1797,1845,0.0000124,0.99745423,0.0000,09/29.4343/2021,2000,g  8.0,3.2
# From MPEC 2020-KB7
C/2020 H7 (Lemmon),e,135.9235,323.5194,82.6780,1405,0.0000187,0.99685380,0.0000,06/02.9510/2020,2000,g 11.0,4.0
# From MPEC 2021-N06
C/2020 H8 (PANSTARRS),e,99.6989,68.4320,128.7934,586.2023,0.0000694,0.99204914,0.0000,06/04.8712/2020,2000,g 10.5,4.0
# From MPEC 2022-ED3
A/2020 H9,e,137.8724,213.0942,312.5786,335.7440,0.0001602,0.99237345,0.0000,12/21.6385/2019,2000,g 18.0,2.0
# From MPEC 2023-HN7
C/2020 H11 (PANSTARRS-Lemmon),e,151.3701,303.0581,91.3538,9917,0.0000010,0.99923155,0.0000,09/12.0121/2020,2000,g  8.5,4.0
# From MPEC 2023-KD6
C/2020 J1 (SONEAR),e,142.3086,226.5731,341.5481,5875,0.0000022,0.99943075,0.0000,04/17.8122/2021,2000,g  8.5,3.2
# From MPC184409
C/2020 K1 (PANSTARRS),e,89.6703,94.3674,213.9638,1974,0.0000112,0.99844257,0.0000,05/08.5762/2023,2000,g  5.5,4.0
# From MPEC 2021-N06
C/2020 K2 (PANSTARRS),h,08/03.8565/2020,90.9857,288.4364,67.2981,1.000417,8.880231,2000,6.5,4.0
# From MPEC 2020-KF9
C/2020 K3 (Leonard),p,06/01.0032/2020,129.0152,64.4924,1.583069,28.3546,2000,14.5,4.0
# From MPEC 2020-L06
C/2020 K4 (PANSTARRS),e,125.5853,264.2706,308.7543,23.90692,0.0084318,0.92713901,17.4948,11/09.0/2025,2000,g 16.5,4.0
# From MPEC 2021-R75
C/2020 K5 (PANSTARRS),h,06/03.9256/2021,67.0700,86.1427,249.6446,1.000710,1.541511,2000,11.0,4.0
# From MPEC 2023-N01
C/2020 K6 (Rankin),h,09/14.3746/2021,103.6276,291.6028,44.2606,1.001714,5.865418,2000,8.0,4.0
# From MPEC 2023-A50
C/2020 K7 (PANSTARRS),e,32.0442,286.1355,358.0431,94.11872,0.0010794,0.93215282,2.3825,11/09.0/2025,2000,g  8.0,4.0
# From MPEC 2021-P47
C/2020 K8 (Catalina-ATLAS),h,09/15.8129/2020,31.3621,181.2366,260.2304,1.000339,0.472020,2000,15.0,3.2
# From MPEC 2021-BE3
P/2020 K9 (Lemmon-PANSTARRS),e,23.1872,166.3076,197.0820,4.207979,0.1141810,0.31994486,197.8030,11/09.0/2025,2000,g 12.5,4.0
# From MPEC 2023-C45
P/2020 M1 (PANSTARRS),e,8.5349,142.6214,72.4659,5.310730,0.0805328,0.47379558,172.9566,11/09.0/2025,2000,g 14.5,4.0
# From MPEC 2022-H30
C/2020 M3 (ATLAS),e,23.4678,71.1882,328.6827,27.31973,0.0069022,0.95326135,12.7031,11/09.0/2025,2000,g 14.5,4.0
# From MPEC 2023-N01
A/2020 M4,e,160.0978,348.6098,104.4516,9310,0.0000011,0.99936201,0.0000,11/22.3817/2020,2000,g 14.5,2.0
# From MPEC 2024-NE4
P/2020 MK4 (PANSTARRS),e,6.7809,0.6582,94.1105,6.225339,0.0634541,0.01544047,326.1371,11/09.0/2025,2000,g  8.0,4.0
# From MPEC 2023-FK0
C/2020 M5 (ATLAS),h,08/19.6750/2021,93.1653,352.0003,126.2457,1.000080,3.000199,2000,9.0,4.0
# From MPEC 2022-GA9
C/2020 N1 (PANSTARRS),h,03/13.2776/2021,29.7687,279.8537,186.8533,1.000936,1.318206,2000,12.5,4.0
# From MPEC 2021-P47
C/2020 N2 (ATLAS),e,161.0396,257.1723,331.1684,100.7781,0.0009742,0.98231505,0.0000,08/24.2514/2020,2000,g 16.0,3.2
# From MPEC 2024-JU4
C/2020 O2 (Amaral),e,71.7636,256.7874,10.1478,7032,0.0000017,0.99930962,0.0000,08/27.0471/2021,2000,g  8.0,3.2
# From MPEC 2023-C45
P/2020 O3 (PANSTARRS),e,8.4444,266.8163,81.1089,4.646085,0.0984177,0.10239280,172.2432,11/09.0/2025,2000,g 12.0,4.0
# From MPEC 2021-BE3
